HULIANWANG DIGUI-120    
1 67060U 25295B   25349.71694909  .00000000  00000+0  66896-4 0  9998
2 67060  50.0050 359.6709 0013223 257.2650 102.6786 14.25706335   543
HULIANWANG DIGUI-121    
1 67061U 25295C   25349.71692468 -.00000001  00000+0  66638-4 0  9993
2 67061  50.0012 359.6606 0013268 256.3366 103.6071 14.25729079   549
HULIANWANG DIGUI-122    
1 67062U 25295D   25353.78207397  .00000116  00000+0  11542-3 0  9998
2 67062  50.0054 342.5018 0013166 278.0438  81.8981 14.25755377  1124
HULIANWANG DIGUI-123    
1 67063U 25295E   25353.78135062  .00000109  00000+0  11241-3 0  9996
2 67063  50.0061 342.5004 0012481 277.2305  82.7190 14.25888181  1123
HULIANWANG DIGUI-124    
1 67064U 25295F   25353.78101987 -.00000623  00000+0 -19275-3 0  9994
2 67064  50.0035 342.4852 0012089 271.8822  88.0708 14.25949421  1122
HULIANWANG DIGUI-125    
1 67065U 25295G   25353.78099510  .00000101  00000+0  10857-3 0  9999
2 67065  50.0012 342.4835 0012279 277.8662  82.0858 14.25953854  1123
HULIANWANG DIGUI-126    
1 67066U 25295H   25353.78019784  .00000096  00000+0  10653-3 0  9992
2 67066  50.0014 342.4785 0011439 275.0106  84.9502 14.26096808  1125
HULIANWANG DIGUI-127    
1 67067U 25295J   25353.77945503 -.00000809  00000+0 -26867-3 0  9997
2 67067  50.0053 342.4819 0010875 278.9010  81.0673 14.26251183  1122
CZ-12 R/B               
1 67068U 25295K   25353.49146604 -.00000118  00000+0  15271-4 0  9992
2 67068  49.9945 342.9744 0056889 160.1053 200.2102 14.41129033  1088
XIWANG-5 02             
1 67069U 25296A   25353.68161125  .00008613  00000+0  43858-3 0  9998
2 67069  41.3526  61.9750 0014495  74.5676 285.6746 15.16806567  1012
DEAR-5                  
1 67070U 25296B   25353.68085161  .00004569  00000+0  23707-3 0  9992
2 67070  41.3553  61.9711 0016066  75.9678 284.2929 15.16874808  1004
KZ-11 R/B               
1 67071U 25296C   25353.57053920  .06216299  62939-5  52382-3 0  9996
2 67071  41.3275  65.0444 0633659   1.3602 358.8773 14.97990910   967
